start=new Date('2023-05-05T00:00:00.000Z').valueOf();
sats=[{"PERIOD":"95.592","OBJECT_NAME":"STARLINK-2406","EPHEMERIS_TYPE":"0","ELEMENT_SET_NO":"999","FILE":"3901186","RCS_SIZE":"LARGE","SITE":"AFETR","CLASSIFICATION_TYPE":"U","REF_FRAME":"TEME","BSTAR":"0.00006344700000","MEAN_MOTION":"15.06399945","NORAD_CAT_ID":"47821","MEAN_MOTION_DOT":"0.00000664","SEMIMAJOR_AXIS":"6925.349","DECAY_DATE":null,"MEAN_ANOMALY":"265.0845","PERIAPSIS":"546.514","EPOCH":"2023-05-04T14:06:19.503936","REV_AT_EPOCH":"11982","TIME_SYSTEM":"UTC","GP_ID":"231271435","TLE_LINE1":"1 47821U 21018AL  23124.58772574  .00000664  00000-0  63447-4 0  9995","ECCENTRICITY":"0.00010100","INCLINATION":"53.0536","RA_OF_ASC_NODE":"240.8251","OBJECT_TYPE":"PAYLOAD","MEAN_MOTION_DDOT":"0.0000000000000","COUNTRY_CODE":"US","OBJECT_ID":"2021-018AL","CENTER_NAME":"EARTH","LAUNCH_DATE":"2021-03-11","ARG_OF_PERICENTER":"95.0259","MEAN_ELEMENT_THEORY":"SGP4","APOAPSIS":"547.913","TLE_LINE2":"2 47821  53.0536 240.8251 0001010  95.0259 265.0845 15.06399945119822"},{"CLASSIFICATION_TYPE":"U","SITE":"AFETR","PERIOD":"95.593","OBJECT_NAME":"STARLINK-2407","EPHEMERIS_TYPE":"0","ELEMENT_SET_NO":"999","FILE":"3901186","RCS_SIZE":"LARGE","MEAN_MOTION_DOT":"0.00027234","SEMIMAJOR_AXIS":"6925.395","DECAY_DATE":null,"MEAN_ANOMALY":"243.9288","REF_FRAME":"TEME","BSTAR":"0.00184090000000","MEAN_MOTION":"15.06384992","NORAD_CAT_ID":"47822","COUNTRY_CODE":"US","OBJECT_ID":"2021-018AM","CENTER_NAME":"EARTH","LAUNCH_DATE":"2021-03-11","EPOCH":"2023-05-04T20:41:42.121248","PERIAPSIS":"546.782","REV_AT_EPOCH":"11973","TIME_SYSTEM":"UTC","GP_ID":"231270680","TLE_LINE1":"1 47822U 21018AM  23124.86229307  .00027234  00000-0  18409-2 0  9996","INCLINATION":"53.0532","ECCENTRICITY":"0.00006890","RA_OF_ASC_NODE":"249.5719","OBJECT_TYPE":"PAYLOAD","MEAN_MOTION_DDOT":"0.0000000000000","APOAPSIS":"547.737","TLE_LINE2":"2 47822  53.0532 249.5719 0000689 116.1772 243.9288 15.06384992119732","ARG_OF_PERICENTER":"116.1772","MEAN_ELEMENT_THEORY":"SGP4"},{"COUNTRY_CODE":"US","LAUNCH_DATE":"2021-03-11","OBJECT_ID":"2021-018AN","CENTER_NAME":"EARTH","GP_ID":"231238123","TLE_LINE1":"1 47823U 21018AN  23124.54623486  .00020976  00000-0  14236-2 0  9998","ECCENTRICITY":"0.00012760","INCLINATION":"53.0540","EPOCH":"2023-05-04T13:06:34.691904","PERIAPSIS":"546.385","REV_AT_EPOCH":"11982","TIME_SYSTEM":"UTC","MEAN_MOTION_DDOT":"0.0000000000000","RA_OF_ASC_NODE":"240.9901","OBJECT_TYPE":"PAYLOAD","APOAPSIS":"548.153","TLE_LINE2":"2 47823  53.0540 240.9901 0001276 103.4425 256.6706 15.06381914119824","ARG_OF_PERICENTER":"103.4425","MEAN_ELEMENT_THEORY":"SGP4","SITE":"AFETR","CLASSIFICATION_TYPE":"U","EPHEMERIS_TYPE":"0","ELEMENT_SET_NO":"999","PERIOD":"95.593","OBJECT_NAME":"STARLINK-2408","RCS_SIZE":"LARGE","FILE":"3900892","SEMIMAJOR_AXIS":"6925.404","MEAN_MOTION_DOT":"0.00020976","DECAY_DATE":null,"MEAN_ANOMALY":"256.6706","MEAN_MOTION":"15.06381914","NORAD_CAT_ID":"47823","REF_FRAME":"TEME","BSTAR":"0.00142360000000"},{"APOAPSIS":"548.061","TLE_LINE2":"2 47824  53.0550 239.8545 0001221  96.1819 263.9309 15.06399240119856","ARG_OF_PERICENTER":"96.1819","MEAN_ELEMENT_THEORY":"SGP4","COUNTRY_CODE":"US","LAUNCH_DATE":"2021-03-11","OBJECT_ID":"2021-018AP","CENTER_NAME":"EARTH","GP_ID":"231271684","TLE_LINE1":"1 47824U 21018AP  23124.80150832  .00019504  00000-0  13247-2 0  9994","INCLINATION":"53.0550","ECCENTRICITY":"0.00012210","PERIAPSIS":"546.370","EPOCH":"2023-05-04T19:14:10.318848","REV_AT_EPOCH":"11985","TIME_SYSTEM":"UTC","MEAN_MOTION_DDOT":"0.0000000000000","RA_OF_ASC_NODE":"239.8545","OBJECT_TYPE":"PAYLOAD","SEMIMAJOR_AXIS":"6925.351","MEAN_MOTION_DOT":"0.00019504","DECAY_DATE":null,"MEAN_ANOMALY":"263.9309","MEAN_MOTION":"15.06399240","NORAD_CAT_ID":"47824","REF_FRAME":"TEME","BSTAR":"0.00132470000000","CLASSIFICATION_TYPE":"U","SITE":"AFETR","EPHEMERIS_TYPE":"0","ELEMENT_SET_NO":"999","PERIOD":"95.592","OBJECT_NAME":"STARLINK-2409","RCS_SIZE":"LARGE","FILE":"3901186"},{"TLE_LINE2":"2 47825  53.0544 240.3677 0001001  92.9059 267.2045 15.06387643119846","APOAPSIS":"547.945","MEAN_ELEMENT_THEORY":"SGP4","ARG_OF_PERICENTER":"92.9059","LAUNCH_DATE":"2021-03-11","OBJECT_ID":"2021-018AQ","CENTER_NAME":"EARTH","COUNTRY_CODE":"US","MEAN_MOTION_DDOT":"0.0000000000000","RA_OF_ASC_NODE":"240.3677","OBJECT_TYPE":"PAYLOAD","GP_ID":"231271935","INCLINATION":"53.0544","TLE_LINE1":"1 47825U 21018AQ  23124.68724807  .00019298  00000-0  13113-2 0  9992","ECCENTRICITY":"0.00010010","EPOCH":"2023-05-04T16:29:38.233248","PERIAPSIS":"546.558","REV_AT_EPOCH":"11984","TIME_SYSTEM":"UTC","DECAY_DATE":null,"MEAN_ANOMALY":"267.2045","SEMIMAJOR_AXIS":"6925.386","MEAN_MOTION_DOT":"0.00019298","MEAN_MOTION":"15.06387643","NORAD_CAT_ID":"47825","REF_FRAME":"TEME","BSTAR":"0.00131130000000","CLASSIFICATION_TYPE":"U","SITE":"AFETR","RCS_SIZE":"LARGE","FILE":"3901186","EPHEMERIS_TYPE":"0","ELEMENT_SET_NO":"999","PERIOD":"95.593","OBJECT_NAME":"STARLINK-2410"},{"GP_ID":"231270181","INCLINATION":"53.0539","TLE_LINE1":"1 47826U 21018AR  23124.68354616 -.00001785  00000-0 -10099-3 0  9995","ECCENTRICITY":"0.00013320","EPOCH":"2023-05-04T16:24:18.388224","PERIAPSIS":"546.342","REV_AT_EPOCH":"11984","TIME_SYSTEM":"UTC","MEAN_MOTION_DDOT":"0.0000000000000","RA_OF_ASC_NODE":"240.3832","OBJECT_TYPE":"PAYLOAD","COUNTRY_CODE":"US","LAUNCH_DATE":"2021-03-11","OBJECT_ID":"2021-018AR","CENTER_NAME":"EARTH","ARG_OF_PERICENTER":"106.4535","MEAN_ELEMENT_THEORY":"SGP4","APOAPSIS":"548.187","TLE_LINE2":"2 47826  53.0539 240.3832 0001332 106.4535 253.6600 15.06383343119840","EPHEMERIS_TYPE":"0","ELEMENT_SET_NO":"999","PERIOD":"95.593","OBJECT_NAME":"STARLINK-2411","RCS_SIZE":"LARGE","FILE":"3901186","SITE":"AFETR","CLASSIFICATION_TYPE":"U","MEAN_MOTION":"15.06383343","NORAD_CAT_ID":"47826","REF_FRAME":"TEME","BSTAR":"-0.00010099000000","SEMIMAJOR_AXIS":"6925.400","MEAN_MOTION_DOT":"-0.00001785","DECAY_DATE":null,"MEAN_ANOMALY":"253.6600"},{"BSTAR":"0.00170810000000","REF_FRAME":"TEME","NORAD_CAT_ID":"47827","MEAN_MOTION":"15.06395440","MEAN_ANOMALY":"292.4199","DECAY_DATE":null,"MEAN_MOTION_DOT":"0.00025249","SEMIMAJOR_AXIS":"6925.363","FILE":"3901186","RCS_SIZE":"LARGE","OBJECT_NAME":"STARLINK-2413","PERIOD":"95.592","ELEMENT_SET_NO":"999","EPHEMERIS_TYPE":"0","CLASSIFICATION_TYPE":"U","SITE":"AFETR","MEAN_ELEMENT_THEORY":"SGP4","ARG_OF_PERICENTER":"67.6933","TLE_LINE2":"2 47827  53.0542 230.7077 0001351  67.6933 292.4199 15.06395440120038","APOAPSIS":"548.163","OBJECT_TYPE":"PAYLOAD","RA_OF_ASC_NODE":"230.7077","MEAN_MOTION_DDOT":"0.0000000000000","REV_AT_EPOCH":"12003","TIME_SYSTEM":"UTC","EPOCH":"2023-05-04T15:59:09.371616","PERIAPSIS":"546.292","ECCENTRICITY":"0.00013510","TLE_LINE1":"1 47827U 21018AS  23124.66608069  .00025249  00000-0  17081-2 0  9994","INCLINATION":"53.0542","GP_ID":"231270933","CENTER_NAME":"EARTH","OBJECT_ID":"2021-018AS","LAUNCH_DATE":"2021-03-11","COUNTRY_CODE":"US"},{"TLE_LINE2":"2 47828  53.0538 250.4541 0001273  62.1896 297.9222 15.06394902119701","APOAPSIS":"548.111","MEAN_ELEMENT_THEORY":"SGP4","ARG_OF_PERICENTER":"62.1896","LAUNCH_DATE":"2021-03-11","OBJECT_ID":"2021-018AT","CENTER_NAME":"EARTH","COUNTRY_CODE":"US","MEAN_MOTION_DDOT":"0.0000000000000","RA_OF_ASC_NODE":"250.4541","OBJECT_TYPE":"PAYLOAD","GP_ID":"231271185","ECCENTRICITY":"0.00012730","TLE_LINE1":"1 47828U 21018AT  23124.66789399  .00022992  00000-0  15576-2 0  9990","INCLINATION":"53.0538","EPOCH":"2023-05-04T16:01:46.040736","PERIAPSIS":"546.348","REV_AT_EPOCH":"11970","TIME_SYSTEM":"UTC","DECAY_DATE":null,"MEAN_ANOMALY":"297.9222","SEMIMAJOR_AXIS":"6925.364","MEAN_MOTION_DOT":"0.00022992","MEAN_MOTION":"15.06394902","NORAD_CAT_ID":"47828","REF_FRAME":"TEME","BSTAR":"0.00155760000000","CLASSIFICATION_TYPE":"U","SITE":"AFETR","RCS_SIZE":"LARGE","FILE":"3901186","EPHEMERIS_TYPE":"0","ELEMENT_SET_NO":"999","PERIOD":"95.592","OBJECT_NAME":"STARLINK-2415"},{"COUNTRY_CODE":"US","LAUNCH_DATE":"2021-03-11","CENTER_NAME":"EARTH","OBJECT_ID":"2021-018AU","ECCENTRICITY":"0.00011370","TLE_LINE1":"1 47829U 21018AU  23124.61996276  .00025200  00000-0  17057-2 0  9991","INCLINATION":"53.0536","GP_ID":"231271436","REV_AT_EPOCH":"11968","TIME_SYSTEM":"UTC","PERIAPSIS":"546.499","EPOCH":"2023-05-04T14:52:44.782464","MEAN_MOTION_DDOT":"0.0000000000000","OBJECT_TYPE":"PAYLOAD","RA_OF_ASC_NODE":"250.6689","APOAPSIS":"548.074","TLE_LINE2":"2 47829  53.0536 250.6689 0001137 105.0219 255.0896 15.06376224119686","ARG_OF_PERICENTER":"105.0219","MEAN_ELEMENT_THEORY":"SGP4","CLASSIFICATION_TYPE":"U","SITE":"AFETR","ELEMENT_SET_NO":"999","EPHEMERIS_TYPE":"0","OBJECT_NAME":"STARLINK-2416","PERIOD":"95.594","RCS_SIZE":"LARGE","FILE":"3901186","SEMIMAJOR_AXIS":"6925.421","MEAN_MOTION_DOT":"0.00025200","MEAN_ANOMALY":"255.0896","DECAY_DATE":null,"NORAD_CAT_ID":"47829","MEAN_MOTION":"15.06376224","BSTAR":"0.00170570000000","REF_FRAME":"TEME"},{"MEAN_MOTION_DOT":"0.00001876","SEMIMAJOR_AXIS":"6925.367","DECAY_DATE":null,"MEAN_ANOMALY":"295.5875","REF_FRAME":"TEME","BSTAR":"0.00014485000000","MEAN_MOTION":"15.06393879","NORAD_CAT_ID":"47830","SITE":"AFETR","CLASSIFICATION_TYPE":"U","PERIOD":"95.593","OBJECT_NAME":"STARLINK-2419","EPHEMERIS_TYPE":"0","ELEMENT_SET_NO":"999","FILE":"3901186","RCS_SIZE":"LARGE","APOAPSIS":"548.104","TLE_LINE2":"2 47830  53.0540 250.6864 0001258  64.5244 295.5875 15.06393879119680","ARG_OF_PERICENTER":"64.5244","MEAN_ELEMENT_THEORY":"SGP4","COUNTRY_CODE":"US","OBJECT_ID":"2021-018AV","CENTER_NAME":"EARTH","LAUNCH_DATE":"2021-03-11","EPOCH":"2023-05-04T14:47:26.650752","PERIAPSIS":"546.361","REV_AT_EPOCH":"11968","TIME_SYSTEM":"UTC","GP_ID":"231270681","TLE_LINE1":"1 47830U 21018AV  23124.61628068  .00001876  00000-0  14485-3 0  9990","ECCENTRICITY":"0.00012580","INCLINATION":"53.0540","RA_OF_ASC_NODE":"250.6864","OBJECT_TYPE":"PAYLOAD","MEAN_MOTION_DDOT":"0.0000000000000"}];
